{"type": "FeatureCollection", "features": [ {"type": "Feature", "properties": {"norad_id": 42987, "name": "SKYSAT-C11", "group": "resource", "lat": 22.963797736710465, "lon": 135.85686274605743, "alt_km": 421.806467127989, "timestamp": "2025-12-27T03:58:43.835586+00:00", "meta": {"OBJECT_NAME": "SKYSAT-C11", "OBJECT_ID": "2017-068A", "EPOCH": "2025-12-26T20:07:20.661312", "MEAN_MOTION": 15.48062691, "ECCENTRICITY": 0.0001166, "INCLINATION": 97.415, "RA_OF_ASC_NODE": 138.6846, "ARG_OF_PERICENTER": 95.3048, "MEAN_ANOMALY": 264.8335, "EPHEMERIS_TYPE": 0, "CLASSIFICATION_TYPE": "U", "NORAD_CAT_ID": 42987, "ELEMENT_SET_NO": 999, "REV_AT_EPOCH": 45649, "BSTAR": 0.00043949, "MEAN_MOTION_DOT": 0.00022959, "MEAN_MOTION_DDOT": 0}, "tle": {"line1": "1 42987U 17068A   25360.83843358  .00022959  00000+0  43949-3 0  9998", "line2": "2 42987  97.4150 138.6846 0001166  95.3048 264.8335 15.48062691456498"}}, "geometry": {"type": "Point", "coordinates": [135.85686274605743, 22.963797736710465]}}, {"type": "Feature", "properties": {"norad_id": 42988, "name": "SKYSAT-C10", "group": "resource", "lat": 12.978266107912583, "lon": 130.33671609285747, "alt_km": 470.2188997658477, "timestamp": "2025-12-27T03:58:43.835595+00:00", "meta": {"OBJECT_NAME": "SKYSAT-C10", "OBJECT_ID": "2017-068B", "EPOCH": "2025-12-26T07:32:29.638752", "MEAN_MOTION": 15.31865933, "ECCENTRICITY": 0.0003533, "INCLINATION": 97.4259, "RA_OF_ASC_NODE": 131.2058, "ARG_OF_PERICENTER": 75.9386, "MEAN_ANOMALY": 284.2248, "EPHEMERIS_TYPE": 0, "CLASSIFICATION_TYPE": "U", "NORAD_CAT_ID": 42988, "ELEMENT_SET_NO": 999, "REV_AT_EPOCH": 45587, "BSTAR": 0.00043148, "MEAN_MOTION_DOT": 0.00013208, "MEAN_MOTION_DDOT": 0}, "tle": {"line1": "1 42988U 17068B   25360.31423193  .00013208  00000+0  43148-3 0  9991", "line2": "2 42988  97.4259 131.2058 0003533  75.9386 284.2248 15.31865933455874"}}, "geometry": {"type": "Point", "coordinates": [130.33671609285747, 12.978266107912583]}}, {"type": "Feature", "properties": {"norad_id": 42989, "name": "SKYSAT-C9", "group": "resource", "lat": 72.38131208354744, "lon": 107.31113760803557, "alt_km": 443.9293865030995, "timestamp": "2025-12-27T03:58:43.835605+00:00", "meta": {"OBJECT_NAME": "SKYSAT-C9", "OBJECT_ID": "2017-068C", "EPOCH": "2025-12-26T08:54:05.306400", "MEAN_MOTION": 15.36395186, "ECCENTRICITY": 0.0010185, "INCLINATION": 97.4193, "RA_OF_ASC_NODE": 130.7353, "ARG_OF_PERICENTER": 43.9303, "MEAN_ANOMALY": 316.2749, "EPHEMERIS_TYPE": 0, "CLASSIFICATION_TYPE": "U", "NORAD_CAT_ID": 42989, "ELEMENT_SET_NO": 999, "REV_AT_EPOCH": 45617, "BSTAR": 0.00038182, "MEAN_MOTION_DOT": 0.00013502, "MEAN_MOTION_DDOT": 0}, "tle": {"line1": "1 42989U 17068C   25360.37089475  .00013502  00000+0  38182-3 0  9998", "line2": "2 42989  97.4193 130.7353 0010185  43.9303 316.2749 15.36395186456178"}}, "geometry": {"type": "Point", "coordinates": [107.31113760803557, 72.38131208354744]}}, {"type": "Feature", "properties": {"norad_id": 42990, "name": "SKYSAT-C8", "group": "resource", "lat": -60.48971085896192, "lon": -62.0963154027889, "alt_km": 472.69955334256883, "timestamp": "2025-12-27T03:58:43.835614+00:00", "meta": {"OBJECT_NAME": "SKYSAT-C8", "OBJECT_ID": "2017-068D", "EPOCH": "2025-12-26T14:23:55.826016", "MEAN_MOTION": 15.33228179, "ECCENTRICITY": 9.52e-05, "INCLINATION": 97.4287, "RA_OF_ASC_NODE": 130.6631, "ARG_OF_PERICENTER": 257.2238, "MEAN_ANOMALY": 102.8898, "EPHEMERIS_TYPE": 0, "CLASSIFICATION_TYPE": "U", "NORAD_CAT_ID": 42990, "ELEMENT_SET_NO": 999, "REV_AT_EPOCH": 45583, "BSTAR": 0.00038952, "MEAN_MOTION_DOT": 0.00012433, "MEAN_MOTION_DDOT": 0}, "tle": {"line1": "1 42990U 17068D   25360.59995169  .00012433  00000+0  38952-3 0  9997", "line2": "2 42990  97.4287 130.6631 0000952 257.2238 102.8898 15.33228179455830"}}, "geometry": {"type": "Point", "coordinates": [-62.0963154027889, -60.48971085896192]}}, {"type": "Feature", "properties": {"norad_id": 42991, "name": "SKYSAT-C7", "group": "resource", "lat": 64.55434461425091, "lon": 116.34360433524816, "alt_km": 459.0356470507786, "timestamp": "2025-12-27T03:58:43.835624+00:00", "meta": {"OBJECT_NAME": "SKYSAT-C7", "OBJECT_ID": "2017-068E", "EPOCH": "2025-12-26T08:53:26.128320", "MEAN_MOTION": 15.32615619, "ECCENTRICITY": 0.0006786, "INCLINATION": 97.4296, "RA_OF_ASC_NODE": 131.4629, "ARG_OF_PERICENTER": 13.3039, "MEAN_ANOMALY": 346.838, "EPHEMERIS_TYPE": 0, "CLASSIFICATION_TYPE": "U", "NORAD_CAT_ID": 42991, "ELEMENT_SET_NO": 999, "REV_AT_EPOCH": 45586, "BSTAR": 0.00036175, "MEAN_MOTION_DOT": 0.00011327, "MEAN_MOTION_DDOT": 0}, "tle": {"line1": "1 42991U 17068E   25360.37044130  .00011327  00000+0  36175-3 0  9993", "line2": "2 42991  97.4296 131.4629 0006786  13.3039 346.8380 15.32615619455865"}}, "geometry": {"type": "Point", "coordinates": [116.34360433524816, 64.55434461425091]}}, {"type": "Feature", "properties": {"norad_id": 42992, "name": "SKYSAT-C6", "group": "resource", "lat": 40.58648168330711, "lon": -40.89075183001149, "alt_km": 467.74430534403564, "timestamp": "2025-12-27T03:58:43.835633+00:00", "meta": {"OBJECT_NAME": "SKYSAT-C6", "OBJECT_ID": "2017-068F", "EPOCH": "2025-12-25T20:01:06.090528", "MEAN_MOTION": 15.31757076, "ECCENTRICITY": 0.00047376, "INCLINATION": 97.4326, "RA_OF_ASC_NODE": 131.3522, "ARG_OF_PERICENTER": 46.8398, "MEAN_ANOMALY": 313.3239, "EPHEMERIS_TYPE": 0, "CLASSIFICATION_TYPE": "U", "NORAD_CAT_ID": 42992, "ELEMENT_SET_NO": 999, "REV_AT_EPOCH": 45576, "BSTAR": 0.00037471515, "MEAN_MOTION_DOT": 0.0001142, "MEAN_MOTION_DDOT": 0}, "tle": {"line1": "1 42992U 17068F   25359.83409827  .00011420  00000+0  37472-3 0  9996", "line2": "2 42992  97.4326 131.3522 0004737  46.8398 313.3239 15.31757076455768"}}, "geometry": {"type": "Point", "coordinates": [-40.89075183001149, 40.58648168330711]}}, {"type": "Feature", "properties": {"norad_id": 43111, "name": "CARTOSAT-2F", "group": "resource", "lat": -36.531514220838716, "lon": 64.11557560744917, "alt_km": 515.3534662655929, "timestamp": "2025-12-27T03:58:43.835642+00:00", "meta": {"OBJECT_NAME": "CARTOSAT-2F", "OBJECT_ID": "2018-004A", "EPOCH": "2025-12-26T20:14:14.355744", "MEAN_MOTION": 15.19259316, "ECCENTRICITY": 0.0001553, "INCLINATION": 97.4297, "RA_OF_ASC_NODE": 58.2507, "ARG_OF_PERICENTER": 108.9361, "MEAN_ANOMALY": 251.2042, "EPHEMERIS_TYPE": 0, "CLASSIFICATION_TYPE": "U", "NORAD_CAT_ID": 43111, "ELEMENT_SET_NO": 999, "REV_AT_EPOCH": 44116, "BSTAR": 0.00021244, "MEAN_MOTION_DOT": 4.411e-05, "MEAN_MOTION_DDOT": 0}, "tle": {"line1": "1 43111U 18004A   25360.84322171  .00004411  00000+0  21244-3 0  9992", "line2": "2 43111  97.4297  58.2507 0001553 108.9361 251.2042 15.19259316441163"}}, "geometry": {"type": "Point", "coordinates": [64.11557560744917, -36.531514220838716]}}, {"type": "Feature", "properties": {"norad_id": 43259, "name": "GAOFEN-1 02", "group": "resource", "lat": 29.283567035646573, "lon": 54.39002613209575, "alt_km": 640.5325072389742, "timestamp": "2025-12-27T03:58:43.835651+00:00", "meta": {"OBJECT_NAME": "GAOFEN-1 02", "OBJECT_ID": "2018-031A", "EPOCH": "2025-12-26T21:20:20.664384", "MEAN_MOTION": 14.76444393, "ECCENTRICITY": 0.0002709, "INCLINATION": 98.0783, "RA_OF_ASC_NODE": 58.6818, "ARG_OF_PERICENTER": 166.3273, "MEAN_ANOMALY": 193.8011, "EPHEMERIS_TYPE": 0, "CLASSIFICATION_TYPE": "U", "NORAD_CAT_ID": 43259, "ELEMENT_SET_NO": 999, "REV_AT_EPOCH": 41727, "BSTAR": 0.00015151, "MEAN_MOTION_DOT": 1.002e-05, "MEAN_MOTION_DDOT": 0}, "tle": {"line1": "1 43259U 18031A   25360.88912806  .00001002  00000+0  15151-3 0  9992", "line2": "2 43259  98.0783  58.6818 0002709 166.3273 193.8011 14.76444393417271"}}, "geometry": {"type": "Point", "coordinates": [54.39002613209575, 29.283567035646573]}}, {"type": "Feature", "properties": {"norad_id": 43260, "name": "GAOFEN-1 03", "group": "resource", "lat": 33.69211479262188, "lon": -115.73195357985361, "alt_km": 638.792191386141, "timestamp": "2025-12-27T03:58:43.835660+00:00", "meta": {"OBJECT_NAME": "GAOFEN-1 03", "OBJECT_ID": "2018-031B", "EPOCH": "2025-12-26T20:48:51.257088", "MEAN_MOTION": 14.76427517, "ECCENTRICITY": 0.0001657, "INCLINATION": 98.0779, "RA_OF_ASC_NODE": 58.5361, "ARG_OF_PERICENTER": 250.3765, "MEAN_ANOMALY": 109.7266, "EPHEMERIS_TYPE": 0, "CLASSIFICATION_TYPE": "U", "NORAD_CAT_ID": 43260, "ELEMENT_SET_NO": 999, "REV_AT_EPOCH": 41726, "BSTAR": 0.00014577, "MEAN_MOTION_DOT": 9.62e-06, "MEAN_MOTION_DDOT": 0}, "tle": {"line1": "1 43260U 18031B   25360.86725992  .00000962  00000+0  14577-3 0  9995", "line2": "2 43260  98.0779  58.5361 0001657 250.3765 109.7266 14.76427517417267"}}, "geometry": {"type": "Point", "coordinates": [-115.73195357985361, 33.69211479262188]}}, {"type": "Feature", "properties": {"norad_id": 43262, "name": "GAOFEN-1 04", "group": "resource", "lat": -80.62219439800035, "lon": 118.32266961742951, "alt_km": 648.2412308275698, "timestamp": "2025-12-27T03:58:43.835669+00:00", "meta": {"OBJECT_NAME": "GAOFEN-1 04", "OBJECT_ID": "2018-031D", "EPOCH": "2025-12-26T20:13:54.564096", "MEAN_MOTION": 14.76433269, "ECCENTRICITY": 4.79e-05, "INCLINATION": 98.0784, "RA_OF_ASC_NODE": 58.682, "ARG_OF_PERICENTER": 65.5515, "MEAN_ANOMALY": 294.5744, "EPHEMERIS_TYPE": 0, "CLASSIFICATION_TYPE": "U", "NORAD_CAT_ID": 43262, "ELEMENT_SET_NO": 999, "REV_AT_EPOCH": 41725, "BSTAR": 9.5342e-05, "MEAN_MOTION_DOT": 6.11e-06, "MEAN_MOTION_DDOT": 0}, "tle": {"line1": "1 43262U 18031D   25360.84299264  .00000611  00000+0  95342-4 0  9994", "line2": "2 43262  98.0784  58.6820 0000479  65.5515 294.5744 14.76433269417250"}}, "geometry": {"type": "Point", "coordinates": [118.32266961742951, -80.62219439800035]}}]}